NORAD_CAT_ID,OBJECT_NAME,OBJECT_TYPE,EPOCH,MEAN_MOTION,ECCENTRICITY,INCLINATION,RA_OF_ASC_NODE,ARG_OF_PERICENTER,MEAN_ANOMALY,BSTAR,MEAN_MOTION_DOT,MEAN_MOTION_DDOT,TLE_LINE0,TLE_LINE1,TLE_LINE2,SEMIMAJOR_AXIS,PERIOD,APOGEE,PERIGEE,DECAYED
49174.0,STARLINK-3047,PAYLOAD,2024-07-28 00:51:30,15.0632862,0.0003601,69.9977,315.308,270.8789,89.1961,0.0011,0.00016147,0.0,0 STARLINK-3047,1 49174U 21082AW  24210.03577503  .00016147  00000-0  11000-2 0  9990,2 49174  69.9977 315.3080 0003601 270.8789  89.1961 15.06328620159467,6925.567,95.597,549.926,544.938,0.0
49174.0,STARLINK-3047,PAYLOAD,2024-07-28 16:47:44,15.06348888,0.0003715,69.9977,313.6125,271.6518,88.422,0.00097304,0.00014276,0.0,0 STARLINK-3047,1 49174U 21082AW  24210.69982590  .00014276  00000-0  97304-3 0  9991,2 49174  69.9977 313.6125 0003715 271.6518  88.4220 15.06348888159562,6925.505,95.595,549.943,544.797,0.0
49174.0,STARLINK-3047,PAYLOAD,2024-07-29 13:30:49,15.06376974,0.0003795,69.9978,311.408,272.1632,87.9096,0.0010719,0.00015752,0.0,0 STARLINK-3047,1 49174U 21082AW  24211.56307847  .00015752  00000-0  10719-2 0  9998,2 49174  69.9978 311.4080 0003795 272.1632  87.9096 15.06376974159696,6925.419,95.594,549.912,544.656,0.0
49174.0,STARLINK-3047,PAYLOAD,2024-07-29 16:42:04,15.06382127,0.0003792,69.9978,311.0688,272.2097,87.8632,0.0011115,0.00016341,0.0,0 STARLINK-3047,1 49174U 21082AW  24211.69588514  .00016341  00000-0  11115-2 0  9990,2 49174  69.9978 311.0688 0003792 272.2097  87.8632 15.06382127159714,6925.403,95.593,549.894,544.642,0.0
49174.0,STARLINK-3047,PAYLOAD,2024-07-30 13:25:07,15.06413547,0.0003805,69.998,308.8645,272.9644,87.1084,0.0013999,0.00020637,0.0,0 STARLINK-3047,1 49174U 21082AW  24212.55912017  .00020637  00000-0  13999-2 0  9990,2 49174  69.9980 308.8645 0003805 272.9644  87.1084 15.06413547159843,6925.307,95.591,549.807,544.537,0.0
49174.0,STARLINK-3047,PAYLOAD,2024-07-31 14:55:01,15.0644592,0.0003837,69.998,306.1513,274.2037,85.8687,0.0011306,0.00016653,0.0,0 STARLINK-3047,1 49174U 21082AW  24213.62153945  .00016653  00000-0  11306-2 0  9999,2 49174  69.9980 306.1513 0003837 274.2037  85.8687 15.06445920160008,6925.208,95.589,549.73,544.416,0.0
49174.0,STARLINK-3047,PAYLOAD,2024-07-31 16:30:38,15.06448325,0.0003821,69.9981,305.9817,274.1584,85.9142,0.0011304,0.00016651,0.0,0 STARLINK-3047,1 49174U 21082AW  24213.68793985  .00016651  00000-0  11304-2 0  9995,2 49174  69.9981 305.9817 0003821 274.1584  85.9142 15.06448325160012,6925.2,95.589,549.712,544.419,0.0
49174.0,STARLINK-3047,PAYLOAD,2024-08-01 10:02:24,15.06482417,0.0003778,69.9981,304.1168,274.3658,85.7073,0.0016404,0.00024257,0.0,0 STARLINK-3047,1 49174U 21082AW  24214.41833658  .00024257  00000-0  16404-2 0  9996,2 49174  69.9981 304.1168 0003778 274.3658  85.7073 15.06482417160120,6925.096,95.587,549.577,544.345,0.0
49174.0,STARLINK-3047,PAYLOAD,2024-08-01 16:24:51,15.06486119,0.0003787,69.9981,303.4384,274.897,85.1761,0.0012594,0.00018587,0.0,0 STARLINK-3047,1 49174U 21082AW  24214.68393220  .00018587  00000-0  12594-2 0  9996,2 49174  69.9981 303.4384 0003787 274.8970  85.1761 15.06486119160169,6925.085,95.587,549.572,544.327,0.0
49174.0,STARLINK-3047,PAYLOAD,2024-08-02 14:43:26,15.06517459,0.0003772,69.998,301.0645,275.7471,84.3262,0.0011079,0.00016348,0.0,0 STARLINK-3047,1 49174U 21082AW  24215.61350346  .00016348  00000-0  11079-2 0  9992,2 49174  69.9980 301.0645 0003772 275.7471  84.3262 15.06517459160307,6924.989,95.585,549.466,544.241,0.0
49174.0,STARLINK-3047,PAYLOAD,2024-08-02 16:19:03,15.06519993,0.0003772,69.998,300.8949,275.914,84.1593,0.0011111,0.00016396,0.0,0 STARLINK-3047,1 49174U 21082AW  24215.67990065  .00016396  00000-0  11111-2 0  9996,2 49174  69.9980 300.8949 0003772 275.9140  84.1593 15.06519993160317,6924.981,95.585,549.458,544.234,0.0
49174.0,STARLINK-3047,PAYLOAD,2024-08-03 05:03:56,15.0653781,0.000375,69.9979,299.5381,276.5777,83.4959,0.0011153,0.00016467,0.0,0 STARLINK-3047,1 49174U 21082AW  24216.21107464  .00016467  00000-0  11153-2 0  9995,2 49174  69.9979 299.5381 0003750 276.5777  83.4959 15.06537810160392,6924.926,95.583,549.388,544.194,0.0
49174.0,STARLINK-3047,PAYLOAD,2024-08-03 14:37:36,15.06550335,0.0003754,69.9978,298.5209,275.2529,84.8206,0.0010896,0.0001609,0.0,0 STARLINK-3047,1 49174U 21082AW  24216.60945129  .00016090  00000-0  10896-2 0  9991,2 49174  69.9978 298.5209 0003754 275.2529  84.8206 15.06550335160458,6924.888,95.583,549.352,544.153,0.0
49174.0,STARLINK-3047,PAYLOAD,2024-08-03 22:35:39,15.06563042,0.0003755,69.9978,297.673,275.4052,84.6682,0.0012032,0.00017788,0.0,0 STARLINK-3047,1 49174U 21082AW  24216.94142900  .00017788  00000-0  12032-2 0  9993,2 49174  69.9978 297.6730 0003755 275.4052  84.6682 15.06563042160502,6924.849,95.582,549.314,544.114,0.0
49174.0,STARLINK-3047,PAYLOAD,2024-08-04 12:56:08,15.06587014,0.0003772,69.9976,296.1468,275.4672,84.6061,0.0013477,0.00019955,0.0,0 STARLINK-3047,1 49174U 21082AW  24217.53898191  .00019955  00000-0  13477-2 0  9991,2 49174  69.9976 296.1468 0003772 275.4672  84.6061 15.06587014160594,6924.775,95.58,549.252,544.028,0.0
49174.0,STARLINK-3047,PAYLOAD,2024-08-04 14:31:44,15.06589502,0.0003775,69.9976,295.9772,275.4433,84.6299,0.0013391,0.00019828,0.0,0 STARLINK-3047,1 49174U 21082AW  24217.60537611  .00019828  00000-0  13391-2 0  9990,2 49174  69.9976 295.9772 0003775 275.4433  84.6299 15.06589502160606,6924.768,95.58,549.247,544.019,0.0
49174.0,STARLINK-3047,PAYLOAD,2024-08-04 22:29:46,15.06617584,0.0003775,69.9974,295.1292,275.6174,84.4559,0.0021323,0.0003171,0.0,0 STARLINK-3047,1 49174U 21082AW  24217.93734380  .00031710  00000-0  21323-2 0  9996,2 49174  69.9974 295.1292 0003775 275.6174  84.4559 15.06617584160651,6924.682,95.578,549.161,543.933,0.0
49174.0,STARLINK-3047,PAYLOAD,2024-08-05 12:50:13,15.06624364,0.0003808,69.9973,293.6028,275.2333,84.8396,0.0011709,0.00017335,0.0,0 STARLINK-3047,1 49174U 21082AW  24218.53488167  .00017335  00000-0  11709-2 0  9996,2 49174  69.9973 293.6028 0003808 275.2333  84.8396 15.06624364160747,6924.661,95.578,549.163,543.889,0.0
49174.0,STARLINK-3047,PAYLOAD,2024-08-05 22:23:51,15.06636565,0.0003832,69.9971,292.5851,275.2096,84.863,0.0010166,0.00015038,0.0,0 STARLINK-3047,1 49174U 21082AW  24218.93323493  .00015038  00000-0  10166-2 0  9994,2 49174  69.9971 292.5851 0003832 275.2096  84.8630 15.06636565160804,6924.624,95.577,549.142,543.835,0.0
49174.0,STARLINK-3047,PAYLOAD,2024-08-06 14:19:53,15.06655652,0.0003877,69.997,290.8892,274.7566,85.3155,0.0009004,0.00013311,0.0,0 STARLINK-3047,1 49174U 21082AW  24219.59715034  .00013311  00000-0  90040-3 0  9995,2 49174  69.9970 290.8892 0003877 274.7566  85.3155 15.06655652160901,6924.565,95.576,549.115,543.745,0.0
49174.0,STARLINK-3047,PAYLOAD,2024-08-07 12:38:19,15.06681842,0.0003962,69.9967,288.5147,274.3951,85.676,0.0009315,0.00013785,0.0,0 STARLINK-3047,1 49174U 21082AW  24220.52661854  .00013785  00000-0  93150-3 0  9990,2 49174  69.9967 288.5147 0003962 274.3951  85.6760 15.06681842161044,6924.485,95.574,549.093,543.606,0.0
49174.0,STARLINK-3047,PAYLOAD,2024-08-08 14:07:56,15.0671464,0.0004031,69.9965,285.8005,273.8591,86.2111,0.0010438,0.00015477,0.0,0 STARLINK-3047,1 49174U 21082AW  24221.58884754  .00015477  00000-0  10438-2 0  9990,2 49174  69.9965 285.8005 0004031 273.8591  86.2111 15.06714640161205,6924.384,95.572,549.041,543.458,0.0
49174.0,STARLINK-3047,PAYLOAD,2024-08-08 22:05:56,15.06729023,0.0004062,69.9965,284.9521,274.1215,85.9484,0.001244,0.0001848,0.0,0 STARLINK-3047,1 49174U 21082AW  24221.92078847  .00018480  00000-0  12440-2 0  9998,2 49174  69.9965 284.9521 0004062 274.1215  85.9484 15.06729023161254,6924.34,95.571,549.018,543.393,0.0
49174.0,STARLINK-3047,PAYLOAD,2024-08-09 12:26:18,15.06765399,0.0004113,69.9964,283.425,275.8374,84.232,0.0015525,0.00023125,0.0,0 STARLINK-3047,1 49174U 21082AW  24222.51827039  .00023125  00000-0  15525-2 0  9998,2 49174  69.9964 283.4250 0004113 275.8374  84.2320 15.06765399161344,6924.229,95.569,548.942,543.246,0.0
49174.0,STARLINK-3047,PAYLOAD,2024-08-09 14:01:54,15.06770627,0.0004105,69.9964,283.2553,275.8636,84.2059,0.0016224,0.00024178,0.0,0 STARLINK-3047,1 49174U 21082AW  24222.58465629  .00024178  00000-0  16224-2 0  9994,2 49174  69.9964 283.2553 0004105 275.8636  84.2059 15.06770627161350,6924.213,95.569,548.92,543.235,0.0
49174.0,STARLINK-3047,PAYLOAD,2024-08-10 04:22:15,15.06816042,0.000413,69.9964,281.7286,275.1853,84.8839,0.0018243,0.00027245,0.0,0 STARLINK-3047,1 49174U 21082AW  24223.18211970  .00027245  00000-0  18243-2 0  9990,2 49174  69.9964 281.7286 0004130 275.1853  84.8839 15.06816042161442,6924.074,95.566,548.798,543.079,0.0
49174.0,STARLINK-3047,PAYLOAD,2024-08-10 13:55:48,15.06845685,0.0004128,69.9965,280.7111,275.5425,84.5267,0.0021135,0.00031625,0.0,0 STARLINK-3047,1 49174U 21082AW  24223.58041992  .00031625  00000-0  21135-2 0  9990,2 49174  69.9965 280.7111 0004128 275.5425  84.5267 15.06845685161509,6923.983,95.564,548.706,542.99,0.0
49174.0,STARLINK-3047,PAYLOAD,2024-08-11 10:38:27,15.0692307,0.0004162,69.9965,278.5059,276.2045,83.8645,0.0026778,0.00040228,0.0,0 STARLINK-3047,1 49174U 21082AW  24224.44337189  .00040228  00000-0  26778-2 0  9999,2 49174  69.9965 278.5059 0004162 276.2045  83.8645 15.06923070161630,6923.746,95.559,548.493,542.729,0.0
49174.0,STARLINK-3047,PAYLOAD,2024-08-11 13:49:37,15.06937557,0.0004126,69.9966,278.167,275.6581,84.4112,0.002948,0.0004434,0.0,0 STARLINK-3047,1 49174U 21082AW  24224.57613004  .00044340  00000-0  29480-2 0  9998,2 49174  69.9966 278.1670 0004126 275.6581  84.4112 15.06937557161657,6923.702,95.558,548.423,542.71,0.0
49174.0,STARLINK-3047,PAYLOAD,2024-08-12 04:09:52,15.06996596,0.0004213,69.9964,276.6394,278.2438,81.8247,0.0028273,0.00042578,0.0,0 STARLINK-3047,1 49174U 21082AW  24225.17352553  .00042578  00000-0  28273-2 0  9994,2 49174  69.9964 276.6394 0004213 278.2438  81.8247 15.06996596161746,6923.521,95.554,548.303,542.469,0.0
